NUSAT-1 (FRESCO)        
1 41557U 16033B   22038.28434370  .00010835  00000+0  35845-3 0  9995
2 41557  97.3891 136.1428 0013365 117.8295 326.8650 15.31426841317441
BEESAT-4                
1 41619U 16040W   22037.89766559  .00009889  00000+0  36882-3 0  9994
2 41619  97.2380  92.2319 0009223 213.5527 146.5129 15.27574874300774
CAS-2T & KS-1Q          
1 41847U 16066G   22037.78161119  .00000765  00000+0  12602-3 0  9992
2 41847  98.5699 102.5056 0363812 240.4950 115.9498 14.38350637275560
NAYIF-1 (EO-88)         
1 42017U 17008BX  22038.16315296  .00010410  00000+0  35484-3 0  9990
2 42017  97.2873 106.4747 0005568  10.2505 349.8848 15.30538694277125
ZHUHAI-1 02 (CAS-4B)    
1 42759U 17034B   22038.12429087  .00003442  00000+0  21629-3 0  9995
2 42759  43.0187 330.4584 0008034 199.9132 291.8272 15.10850018256630
ZHUHAI-1 01 (CAS-4A)    
1 42761U 17034D   22038.16835334  .00003329  00000+0  20912-3 0  9996
2 42761  43.0194 329.0996 0008302 202.4342 292.2802 15.10936460256644
MAX VALIER SAT          
1 42778U 17036P   22037.68710948  .00005797  00000+0  23541-3 0  9997
2 42778  97.2257  83.3517 0013040  72.6928 287.5736 15.24875726256964
RADFXSAT (FOX-1B)       
1 43017U 17073E   22037.68969281  .00003340  00000+0  26015-3 0  9992
2 43017  97.6895 297.2159 0250785 255.5739 101.7524 14.80332463227767
FOX-1D (AO-92)          
1 43137U 18004AC  22037.71072658  .00007931  00000+0  30329-3 0  9990
2 43137  97.3827 114.2328 0009820 102.9677 257.2659 15.26814276226387
DIWATA-2B               
1 43678U 18084H   22038.21153693  .00000930  00000+0  97652-4 0  9998
2 43678  97.9492 170.1511 0010126   4.5657 355.5619 14.91910781178431
ES'HAIL 2               
1 43700U 18090A   22037.83388065  .00000142  00000+0  00000+0 0  9992
2 43700   0.0182 103.1873 0002364 246.0227 113.6938  1.00274724 11727
FOX-1CLIFF (AO-95)      
1 43770U 18099N   22037.89979336  .00001471  00000+0  13685-3 0  9994
2 43770  97.6379 107.6056 0014312 358.9292   1.1896 14.95744183173493
ITASAT 1                
1 43786U 18099AE  22038.17778025  .00001424  00000+0  13188-3 0  9991
2 43786  97.6404 108.7163 0014754 350.2750   9.8184 14.95981164173570
JY1SAT (JO-97)          
1 43803U 18099AX  22037.89682906  .00001587  00000+0  14514-3 0  9995
2 43803  97.6366 108.1793 0014708 351.3125   8.7840 14.96321056173540
UWE-4                   
1 43880U 18111E   22037.98889375  .00002007  00000+0  17757-3 0  9994
2 43880  97.6768 306.5950 0013120  41.9083 318.3141 14.97353620168172
NEXUS (FO-99)           
1 43937U 19003F   22037.67352536  .00009084  00000+0  33739-3 0  9998
2 43937  97.1490  76.2947 0020313 259.7942 100.1007 15.27578577169997
PSAT2 (NO-104)          
1 44354U 19036R   22038.16343690  .00056301  00000+0  65139-3 0  9997
2 44354  28.5294 351.0232 0283925 319.0315  38.9267 15.24613883144677
BRICSAT2 (NO-103)       
1 44355U 19036S   22037.88139353  .00176155  16267-5  10962-2 0  9996
2 44355  28.5211 253.3399 0158865 117.3078 244.3798 15.59978469145624
JAISAT-1                
1 44419U 19038F   22037.89163536  .00005600  00000+0  30152-3 0  9992
2 44419  97.6212   7.3297 0019099 219.4625 140.5217 15.15086692143276
DUCHIFAT-3              
1 44854U 19089C   22038.01809005  .00003261  00000+0  26275-3 0  9996
2 44854  36.9650 152.9879 0008323 248.6074 111.3822 15.00085720118336
CAS-6 (TO-108)          
1 44881U 19093C   22038.23789674  .00000458  00000+0  64996-4 0  9992
2 44881  97.9048 119.2769 0013608 248.1648 111.8133 14.81559501115497
RS-44 & BREEZE-KM R/B   
1 44909U 19096E   22037.86082540  .00000004  00000+0 -18967-4 0  9997
2 44909  82.5237 317.0559 0216327 265.1088  92.5285 12.79711978 98804
ORBITAL FACTORY 2 (OF-2)
1 45113U 19071C   22037.13665471  .00019734  00000+0  50782-3 0  9997
2 45113  51.6413 342.2027 0011474  63.4572 296.7587 15.39179179113113
HUSKYSAT-1 (HO-107)     
1 45119U 19071J   22038.06934767  .00014296  00000+0  37381-3 0  9991
2 45119  51.6415 337.1650 0010995  63.3332 296.8777 15.38950941113256
BY70-2                  
1 45857U 20042B   22038.24659287  .00004906  00000+0  68527-3 0  9994
2 45857  97.9663 116.4757 0011389 171.3530 188.7936 14.78056381 86216
SALSAT                  
1 46495U 20068K   22037.77673974  .00002795  00000+0  20703-3 0  9995
2 46495  97.7182 339.2128 0016859   4.3298 355.8070 15.03855951 74547
BY70-3                  
1 46839U 20079N   22038.14942671  .00016838  00000+0  47109-3 0  9996
2 46839  97.2158 112.4020 0008157  87.2105 358.2304 15.36692204 70200
RADFXSAT-2 (AO-109)     
1 47311U 21002C   22037.78746878  .00007401  00000+0  32055-3 0  9999
2 47311  60.6869 133.2318 0023747 170.3160 189.8390 15.23079694 58541
UVSQ-SAT                
1 47438U 21006AB  22037.68747375  .00004717  00000+0  26226-3 0  9995
2 47438  97.4570  99.4187 0012723  16.0835 344.0799 15.14090513 57485
DIY-1 (ARDUIQUBE)       
1 47963U 21022AH  22037.71376792  .00011309  00000+0  70737-3 0  9992
2 47963  97.5439 300.9346 0016962 219.1686 140.8316 15.09464275 47209
XW-3 (CAS-9)            
1 50466U 21131B   22038.23687364  .00000105  00000+0  48961-4 0  9990
2 50466  98.5926 115.5001 0004949 162.8403 197.2968 14.38440095  6191
